{"fetched_at":"2026-07-11T09:23:57.375Z","source":"https://celestrak.org/NORAD/elements/gp.php?GROUP=oneweb&FORMAT=JSON","constellation":"oneweb","records":[{"OBJECT_NAME":"ONEWEB-0136","OBJECT_ID":"2020-100AA","EPOCH":"2026-07-10T08:49:25.845600","CLASSIFICATION_TYPE":"U","MEAN_MOTION":13.1244155,"ECCENTRICITY":0.00019469,"INCLINATION":87.8957,"RA_OF_ASC_NODE":346.0414,"ARG_OF_PERICENTER":101.5151,"MEAN_ANOMALY":258.6197,"EPHEMERIS_TYPE":0,"NORAD_CAT_ID":47282,"ELEMENT_SET_NO":999,"REV_AT_EPOCH":26770,"BSTAR":-0.00031199695,"MEAN_MOTION_DOT":-0.000001,"MEAN_MOTION_DDOT":0},{"OBJECT_NAME":"ONEWEB-0137","OBJECT_ID":"2020-100AB","EPOCH":"2026-07-10T09:38:13.563168","CLASSIFICATION_TYPE":"U","MEAN_MOTION":13.1244429,"ECCENTRICITY":0.00018484,"INCLINATION":87.8967,"RA_OF_ASC_NODE":346.0449,"ARG_OF_PERICENTER":91.1434,"MEAN_ANOMALY":268.9906,"EPHEMERIS_TYPE":0,"NORAD_CAT_ID":47283,"ELEMENT_SET_NO":999,"REV_AT_EPOCH":26761,"BSTAR":0.00012501268,"MEAN_MOTION_DOT":5.8e-7,"MEAN_MOTION_DDOT":0},{"OBJECT_NAME":"ONEWEB-0138","OBJECT_ID":"2020-100AC","EPOCH":"2026-07-10T09:06:30.473568","CLASSIFICATION_TYPE":"U","MEAN_MOTION":13.12442477,"ECCENTRICITY":0.00020071,"INCLINATION":87.8966,"RA_OF_ASC_NODE":346.0538,"ARG_OF_PERICENTER":100.2653,"MEAN_ANOMALY":259.8702,"EPHEMERIS_TYPE":0,"NORAD_CAT_ID":47284,"ELEMENT_SET_NO":999,"REV_AT_EPOCH":26769,"BSTAR":-0.00098280198,"MEAN_MOTION_DOT":-0.00000341,"MEAN_MOTION_DDOT":0},{"OBJECT_NAME":"ONEWEB-0139","OBJECT_ID":"2020-100AD","EPOCH":"2026-07-09T17:37:14.678688","CLASSIFICATION_TYPE":"U","MEAN_MOTION":13.12441897,"ECCENTRICITY":0.00018996,"INCLINATION":87.896,"RA_OF_ASC_NODE":346.1683,"ARG_OF_PERICENTER":96.7488,"MEAN_ANOMALY":263.3857,"EPHEMERIS_TYPE":0,"NORAD_CAT_ID":47285,"ELEMENT_SET_NO":999,"REV_AT_EPOCH":26768,"BSTAR":0.0011461473,"MEAN_MOTION_DOT":0.00000425,"MEAN_MOTION_DDOT":0},{"OBJECT_NAME":"ONEWEB-0140","OBJECT_ID":"2020-100AE","EPOCH":"2026-07-10T08:59:11.278176","CLASSIFICATION_TYPE":"U","MEAN_MOTION":13.12441834,"ECCENTRICITY":0.00016852,"INCLINATION":87.8964,"RA_OF_ASC_NODE":346.0327,"ARG_OF_PERICENTER":98.3455,"MEAN_ANOMALY":261.7865,"EPHEMERIS_TYPE":0,"NORAD_CAT_ID":47286,"ELEMENT_SET_NO":999,"REV_AT_EPOCH":26773,"BSTAR":-0.00090911605,"MEAN_MOTION_DOT":-0.00000314,"MEAN_MOTION_DDOT":0},{"OBJECT_NAME":"ONEWEB-0141","OBJECT_ID":"2020-100AF","EPOCH":"2026-07-10T10:04:52.086720","CLASSIFICATION_TYPE":"U","MEAN_MOTION":13.12442553,"ECCENTRICITY":0.00017248,"INCLINATION":87.8945,"RA_OF_ASC_NODE":346.0276,"ARG_OF_PERICENTER":85.2223,"MEAN_ANOMALY":274.9103,"EPHEMERIS_TYPE":0,"NORAD_CAT_ID":47287,"ELEMENT_SET_NO":999,"REV_AT_EPOCH":26772,"BSTAR":0.0015388354,"MEAN_MOTION_DOT":0.00000566,"MEAN_MOTION_DDOT":0},{"OBJECT_NAME":"ONEWEB-0142","OBJECT_ID":"2020-100AG","EPOCH":"2026-07-10T09:48:11.725920","CLASSIFICATION_TYPE":"U","MEAN_MOTION":13.12444699,"ECCENTRICITY":0.000222,"INCLINATION":87.8958,"RA_OF_ASC_NODE":346.0505,"ARG_OF_PERICENTER":90.1549,"MEAN_ANOMALY":269.9834,"EPHEMERIS_TYPE":0,"NORAD_CAT_ID":47288,"ELEMENT_SET_NO":999,"REV_AT_EPOCH":26771,"BSTAR":0.00082218459,"MEAN_MOTION_DOT":0.00000309,"MEAN_MOTION_DDOT":0},{"OBJECT_NAME":"ONEWEB-0143","OBJECT_ID":"2020-100AH","EPOCH":"2026-07-09T17:34:35.760576","CLASSIFICATION_TYPE":"U","MEAN_MOTION":13.12443167,"ECCENTRICITY":0.00018851,"INCLINATION":87.8961,"RA_OF_ASC_NODE":346.1848,"ARG_OF_PERICENTER":94.9126,"MEAN_ANOMALY":265.2218,"EPHEMERIS_TYPE":0,"NORAD_CAT_ID":47289,"ELEMENT_SET_NO":999,"REV_AT_EPOCH":26760,"BSTAR":0.0015307368,"MEAN_MOTION_DOT":0.00000563,"MEAN_MOTION_DDOT":0},{"OBJECT_NAME":"ONEWEB-0144","OBJECT_ID":"2020-100AJ","EPOCH":"2026-07-10T09:21:08.826336","CLASSIFICATION_TYPE":"U","MEAN_MOTION":13.12443243,"ECCENTRICITY":0.0002215,"INCLINATION":87.8965,"RA_OF_ASC_NODE":346.0295,"ARG_OF_PERICENTER":99.4052,"MEAN_ANOMALY":260.7327,"EPHEMERIS_TYPE":0,"NORAD_CAT_ID":47290,"ELEMENT_SET_NO":999,"REV_AT_EPOCH":26761,"BSTAR":-0.00080778292,"MEAN_MOTION_DOT":-0.00000278,"MEAN_MOTION_DDOT":0},{"OBJECT_NAME":"ONEWEB-0145","OBJECT_ID":"2020-100AK","EPOCH":"2026-07-10T08:39:40.731840","CLASSIFICATION_TYPE":"U","MEAN_MOTION":13.1244139,"ECCENTRICITY":0.00019532,"INCLINATION":87.8955,"RA_OF_ASC_NODE":346.06,"ARG_OF_PERICENTER":96.0678,"MEAN_ANOMALY":264.0673,"EPHEMERIS_TYPE":0,"NORAD_CAT_ID":47291,"ELEMENT_SET_NO":999,"REV_AT_EPOCH":26780,"BSTAR":0.000050308882,"MEAN_MOTION_DOT":3.1e-7,"MEAN_MOTION_DDOT":0},{"OBJECT_NAME":"ONEWEB-0146","OBJECT_ID":"2020-100AL","EPOCH":"2026-07-10T08:34:48.146016","CLASSIFICATION_TYPE":"U","MEAN_MOTION":13.1244238,"ECCENTRICITY":0.00014849,"INCLINATION":87.896,"RA_OF_ASC_NODE":346.0561,"ARG_OF_PERICENTER":89.325,"MEAN_ANOMALY":270.8049,"EPHEMERIS_TYPE":0,"NORAD_CAT_ID":47292,"ELEMENT_SET_NO":999,"REV_AT_EPOCH":26771,"BSTAR":0.00055269372,"MEAN_MOTION_DOT":0.00000212,"MEAN_MOTION_DDOT":0},{"OBJECT_NAME":"ONEWEB-0147","OBJECT_ID":"2020-100AM","EPOCH":"2026-07-10T09:35:47.336352","CLASSIFICATION_TYPE":"U","MEAN_MOTION":13.12444525,"ECCENTRICITY":0.00018666,"INCLINATION":87.8959,"RA_OF_ASC_NODE":346.0282,"ARG_OF_PERICENTER":101.7742,"MEAN_ANOMALY":258.3596,"EPHEMERIS_TYPE":0,"NORAD_CAT_ID":47293,"ELEMENT_SET_NO":999,"REV_AT_EPOCH":26761,"BSTAR":0.000024543407,"MEAN_MOTION_DOT":2.2e-7,"MEAN_MOTION_DDOT":0},{"OBJECT_NAME":"ONEWEB-0115","OBJECT_ID":"2021-025A","EPOCH":"2026-07-10T08:00:30.707136","CLASSIFICATION_TYPE":"U","MEAN_MOTION":13.13471057,"ECCENTRICITY":0.00018708,"INCLINATION":87.8976,"RA_OF_ASC_NODE":315.6172,"ARG_OF_PERICENTER":100.7676,"MEAN_ANOMALY":259.3664,"EPHEMERIS_TYPE":0,"NORAD_CAT_ID":48042,"ELEMENT_SET_NO":999,"REV_AT_EPOCH":25663,"BSTAR":0.00077199601,"MEAN_MOTION_DOT":0.00000295,"MEAN_MOTION_DDOT":0},{"OBJECT_NAME":"ONEWEB-0152","OBJECT_ID":"2021-025B","EPOCH":"2026-07-10T06:30:19.867392","CLASSIFICATION_TYPE":"U","MEAN_MOTION":13.13498083,"ECCENTRICITY":0.00024601,"INCLINATION":87.9022,"RA_OF_ASC_NODE":315.627,"ARG_OF_PERICENTER":161.4675,"MEAN_ANOMALY":198.6544,"EPHEMERIS_TYPE":0,"NORAD_CAT_ID":48043,"ELEMENT_SET_NO":999,"REV_AT_EPOCH":25658,"BSTAR":-0.012405679,"MEAN_MOTION_DOT":-0.00004517,"MEAN_MOTION_DDOT":0},{"OBJECT_NAME":"ONEWEB-0153","OBJECT_ID":"2021-025C","EPOCH":"2026-07-10T07:48:20.467296","CLASSIFICATION_TYPE":"U","MEAN_MOTION":13.1347019,"ECCENTRICITY":0.00019792,"INCLINATION":87.8973,"RA_OF_ASC_NODE":315.6175,"ARG_OF_PERICENTER":97.3585,"MEAN_ANOMALY":262.7769,"EPHEMERIS_TYPE":0,"NORAD_CAT_ID":48044,"ELEMENT_SET_NO":999,"REV_AT_EPOCH":25658,"BSTAR":0.00071014234,"MEAN_MOTION_DOT":0.00000272,"MEAN_MOTION_DDOT":0},{"OBJECT_NAME":"ONEWEB-0154","OBJECT_ID":"2021-025D","EPOCH":"2026-07-10T07:43:28.139808","CLASSIFICATION_TYPE":"U","MEAN_MOTION":13.13470601,"ECCENTRICITY":0.00018832,"INCLINATION":87.8976,"RA_OF_ASC_NODE":315.6179,"ARG_OF_PERICENTER":107.5291,"MEAN_ANOMALY":252.6044,"EPHEMERIS_TYPE":0,"NORAD_CAT_ID":48045,"ELEMENT_SET_NO":999,"REV_AT_EPOCH":25654,"BSTAR":0.00051004109,"MEAN_MOTION_DOT":0.00000199,"MEAN_MOTION_DDOT":0}]}
